{"type": "FeatureCollection", "features": [{"type": "Feature", "properties": {"norad_id": 25590, "name": "COSMOS 2361", "group": "musson", "lat": 81.26334950062287, "lon": 102.23332350847149, "alt_km": 997.4185082821514, "timestamp": "2025-12-23T14:49:09.660690+00:00", "meta": {"OBJECT_NAME": "COSMOS 2361", "OBJECT_ID": "1998-076A", "EPOCH": "2025-12-23T05:39:50.455296", "MEAN_MOTION": 13.7321864, "ECCENTRICITY": 0.00302473, "INCLINATION": 82.9344, "RA_OF_ASC_NODE": 336.3228, "ARG_OF_PERICENTER": 235.2147, "MEAN_ANOMALY": 135.369, "EPHEMERIS_TYPE": 0, "CLASSIFICATION_TYPE": "U", "NORAD_CAT_ID": 25590, "ELEMENT_SET_NO": 999, "REV_AT_EPOCH": 35255, "BSTAR": 4.3948926e-05, "MEAN_MOTION_DOT": 5.6e-07, "MEAN_MOTION_DDOT": 0}, "tle": {"line1": "1 25590U 98076A   25357.23600064  .00000056  00000+0  43949-4 0  9997", "line2": "2 25590  82.9344 336.3228 0030247 235.2147 135.3690 13.73218640352552"}}, "geometry": {"type": "Point", "coordinates": [102.23332350847149, 81.26334950062287]}}, {"type": "Feature", "properties": {"norad_id": 26818, "name": "COSMOS 2378", "group": "musson", "lat": -24.24652635085766, "lon": 174.86428879975054, "alt_km": 969.0997001005571, "timestamp": "2025-12-23T14:49:09.660713+00:00", "meta": {"OBJECT_NAME": "COSMOS 2378", "OBJECT_ID": "2001-023A", "EPOCH": "2025-12-23T01:54:20.928096", "MEAN_MOTION": 13.74142797, "ECCENTRICITY": 0.00330436, "INCLINATION": 82.9271, "RA_OF_ASC_NODE": 352.0576, "ARG_OF_PERICENTER": 175.8748, "MEAN_ANOMALY": 248.0135, "EPHEMERIS_TYPE": 0, "CLASSIFICATION_TYPE": "U", "NORAD_CAT_ID": 26818, "ELEMENT_SET_NO": 999, "REV_AT_EPOCH": 23065, "BSTAR": 2.666957e-05, "MEAN_MOTION_DOT": 4e-07, "MEAN_MOTION_DDOT": 0}, "tle": {"line1": "1 26818U 01023A   25357.07940889  .00000040  00000+0  26670-4 0  9996", "line2": "2 26818  82.9271 352.0576 0033043 175.8748 248.0135 13.74142797230651"}}, "geometry": {"type": "Point", "coordinates": [174.86428879975054, -24.24652635085766]}}, {"type": "Feature", "properties": {"norad_id": 27436, "name": "COSMOS 2389", "group": "musson", "lat": 82.85794725721014, "lon": 38.033197678589374, "alt_km": 956.2065625436699, "timestamp": "2025-12-23T14:49:09.660728+00:00", "meta": {"OBJECT_NAME": "COSMOS 2389", "OBJECT_ID": "2002-026A", "EPOCH": "2025-12-23T02:12:35.088192", "MEAN_MOTION": 13.75155716, "ECCENTRICITY": 0.00471897, "INCLINATION": 82.9512, "RA_OF_ASC_NODE": 299.3213, "ARG_OF_PERICENTER": 32.5099, "MEAN_ANOMALY": 338.5882, "EPHEMERIS_TYPE": 0, "CLASSIFICATION_TYPE": "U", "NORAD_CAT_ID": 27436, "ELEMENT_SET_NO": 999, "REV_AT_EPOCH": 18291, "BSTAR": 5.6166386e-05, "MEAN_MOTION_DOT": 7e-07, "MEAN_MOTION_DDOT": 0}, "tle": {"line1": "1 27436U 02026A   25357.09207278  .00000070  00000+0  56166-4 0  9993", "line2": "2 27436  82.9512 299.3213 0047189  32.5099 338.5882 13.75155716182916"}}, "geometry": {"type": "Point", "coordinates": [38.033197678589374, 82.85794725721014]}}, {"type": "Feature", "properties": {"norad_id": 27818, "name": "COSMOS 2398", "group": "musson", "lat": -64.28875815355227, "lon": -110.21266019003873, "alt_km": 1018.6389944350349, "timestamp": "2025-12-23T14:49:09.660740+00:00", "meta": {"OBJECT_NAME": "COSMOS 2398", "OBJECT_ID": "2003-023A", "EPOCH": "2025-12-23T05:22:57.155232", "MEAN_MOTION": 13.72386871, "ECCENTRICITY": 0.0032709, "INCLINATION": 82.9484, "RA_OF_ASC_NODE": 264.9724, "ARG_OF_PERICENTER": 83.8632, "MEAN_ANOMALY": 69.6264, "EPHEMERIS_TYPE": 0, "CLASSIFICATION_TYPE": "U", "NORAD_CAT_ID": 27818, "ELEMENT_SET_NO": 999, "REV_AT_EPOCH": 12960, "BSTAR": 7.8743298e-05, "MEAN_MOTION_DOT": 8.8e-07, "MEAN_MOTION_DDOT": 0}, "tle": {"line1": "1 27818U 03023A   25357.22427263  .00000088  00000+0  78743-4 0  9992", "line2": "2 27818  82.9484 264.9724 0032709  83.8632  69.6264 13.72386871129605"}}, "geometry": {"type": "Point", "coordinates": [-110.21266019003873, -64.28875815355227]}}, {"type": "Feature", "properties": {"norad_id": 28380, "name": "COSMOS 2407", "group": "musson", "lat": -74.44841914251087, "lon": 178.47628385212855, "alt_km": 989.8950230168302, "timestamp": "2025-12-23T14:49:09.660752+00:00", "meta": {"OBJECT_NAME": "COSMOS 2407", "OBJECT_ID": "2004-028A", "EPOCH": "2025-12-23T02:02:35.798784", "MEAN_MOTION": 13.76314804, "ECCENTRICITY": 0.00398444, "INCLINATION": 82.9596, "RA_OF_ASC_NODE": 205.2329, "ARG_OF_PERICENTER": 26.5976, "MEAN_ANOMALY": 141.6851, "EPHEMERIS_TYPE": 0, "CLASSIFICATION_TYPE": "U", "NORAD_CAT_ID": 28380, "ELEMENT_SET_NO": 999, "REV_AT_EPOCH": 7565, "BSTAR": 4.031765e-05, "MEAN_MOTION_DOT": 5.5e-07, "MEAN_MOTION_DDOT": 0}, "tle": {"line1": "1 28380U 04028A   25357.08513656  .00000055  00000+0  40318-4 0  9990", "line2": "2 28380  82.9596 205.2329 0039844  26.5976 141.6851 13.76314804 75654"}}, "geometry": {"type": "Point", "coordinates": [178.47628385212855, -74.44841914251087]}}, {"type": "Feature", "properties": {"norad_id": 28521, "name": "COSMOS 2414", "group": "musson", "lat": -76.85612281515436, "lon": 144.427183154791, "alt_km": 973.2833820273436, "timestamp": "2025-12-23T14:49:09.660764+00:00", "meta": {"OBJECT_NAME": "COSMOS 2414", "OBJECT_ID": "2005-002A", "EPOCH": "2025-12-23T04:49:12.346176", "MEAN_MOTION": 13.87904296, "ECCENTRICITY": 0.00413702, "INCLINATION": 82.9488, "RA_OF_ASC_NODE": 176.7493, "ARG_OF_PERICENTER": 110.6519, "MEAN_ANOMALY": 249.9088, "EPHEMERIS_TYPE": 0, "CLASSIFICATION_TYPE": "U", "NORAD_CAT_ID": 28521, "ELEMENT_SET_NO": 999, "REV_AT_EPOCH": 5940, "BSTAR": 3.8846477e-05, "MEAN_MOTION_DOT": 6.3e-07, "MEAN_MOTION_DDOT": 0}, "tle": {"line1": "1 28521U 05002A   25357.20083734  .00000063  00000+0  38846-4 0  9995", "line2": "2 28521  82.9488 176.7493 0041370 110.6519 249.9088 13.87904296 59401"}}, "geometry": {"type": "Point", "coordinates": [144.427183154791, -76.85612281515436]}}, {"type": "Feature", "properties": {"norad_id": 32052, "name": "COSMOS 2429", "group": "musson", "lat": -80.88196199069552, "lon": -74.8515116146899, "alt_km": 989.4485514743474, "timestamp": "2025-12-23T14:49:09.660790+00:00", "meta": {"OBJECT_NAME": "COSMOS 2429", "OBJECT_ID": "2007-038A", "EPOCH": "2025-12-23T01:15:22.856832", "MEAN_MOTION": 13.75150388, "ECCENTRICITY": 0.00386387, "INCLINATION": 82.9807, "RA_OF_ASC_NODE": 335.7061, "ARG_OF_PERICENTER": 9.5193, "MEAN_ANOMALY": 350.6687, "EPHEMERIS_TYPE": 0, "CLASSIFICATION_TYPE": "U", "NORAD_CAT_ID": 32052, "ELEMENT_SET_NO": 999, "REV_AT_EPOCH": 91744, "BSTAR": 3.8660516e-05, "MEAN_MOTION_DOT": 5.2e-07, "MEAN_MOTION_DDOT": 0}, "tle": {"line1": "1 32052U 07038A   25357.05234788  .00000052  00000+0  38661-4 0  9993", "line2": "2 32052  82.9807 335.7061 0038638   9.5193 350.6687 13.75150388917449"}}, "geometry": {"type": "Point", "coordinates": [-74.8515116146899, -80.88196199069552]}}, {"type": "Feature", "properties": {"norad_id": 35635, "name": "COSMOS 2454", "group": "musson", "lat": 49.924321522961385, "lon": 168.84978541033507, "alt_km": 909.6973402702079, "timestamp": "2025-12-23T14:49:09.660804+00:00", "meta": {"OBJECT_NAME": "COSMOS 2454", "OBJECT_ID": "2009-039A", "EPOCH": "2025-12-23T05:02:28.181760", "MEAN_MOTION": 13.8992992, "ECCENTRICITY": 0.00201084, "INCLINATION": 82.9556, "RA_OF_ASC_NODE": 160.7077, "ARG_OF_PERICENTER": 45.6047, "MEAN_ANOMALY": 127.4016, "EPHEMERIS_TYPE": 0, "CLASSIFICATION_TYPE": "U", "NORAD_CAT_ID": 35635, "ELEMENT_SET_NO": 999, "REV_AT_EPOCH": 83295, "BSTAR": 4.6270001e-05, "MEAN_MOTION_DOT": 7.3e-07, "MEAN_MOTION_DDOT": 0}, "tle": {"line1": "1 35635U 09039A   25357.21004840  .00000073  00000+0  46270-4 0  9996", "line2": "2 35635  82.9556 160.7077 0020108  45.6047 127.4016 13.89929920832954"}}, "geometry": {"type": "Point", "coordinates": [168.84978541033507, 49.924321522961385]}}, {"type": "Feature", "properties": {"norad_id": 36519, "name": "COSMOS 2463", "group": "musson", "lat": 80.93394286340954, "lon": 147.97198037530634, "alt_km": 1010.4954580829917, "timestamp": "2025-12-23T14:49:09.660816+00:00", "meta": {"OBJECT_NAME": "COSMOS 2463", "OBJECT_ID": "2010-017A", "EPOCH": "2025-12-23T04:10:52.502592", "MEAN_MOTION": 13.71650047, "ECCENTRICITY": 0.00347734, "INCLINATION": 82.9604, "RA_OF_ASC_NODE": 19.0443, "ARG_OF_PERICENTER": 258.0168, "MEAN_ANOMALY": 170.2922, "EPHEMERIS_TYPE": 0, "CLASSIFICATION_TYPE": "U", "NORAD_CAT_ID": 36519, "ELEMENT_SET_NO": 999, "REV_AT_EPOCH": 78380, "BSTAR": 3.4461345e-05, "MEAN_MOTION_DOT": 4.6e-07, "MEAN_MOTION_DDOT": 0}, "tle": {"line1": "1 36519U 10017A   25357.17421878  .00000046  00000+0  34461-4 0  9994", "line2": "2 36519  82.9604  19.0443 0034773 258.0168 170.2922 13.71650047783803"}}, "geometry": {"type": "Point", "coordinates": [147.97198037530634, 80.93394286340954]}}]}